{"type": "FeatureCollection", "features": [ {"type": "Feature", "properties": {"norad_id": 66919, "name": "HULIANWANG DIGUI 14E", "group": "last-30-days", "lat": 48.806599204391624, "lon": -161.5352794182562, "alt_km": 872.3861425353389, "timestamp": "2025-12-10T20:49:51.346335+00:00", "meta": {"OBJECT_NAME": "HULIANWANG DIGUI 14E", "OBJECT_ID": "2025-285E", "EPOCH": "2025-12-10T15:20:12.801120", "MEAN_MOTION": 14.05714535, "ECCENTRICITY": 0.00078687, "INCLINATION": 50.0057, "RA_OF_ASC_NODE": 125.8382, "ARG_OF_PERICENTER": 284.4277, "MEAN_ANOMALY": 75.5755, "EPHEMERIS_TYPE": 0, "CLASSIFICATION_TYPE": "U", "NORAD_CAT_ID": 66919, "ELEMENT_SET_NO": 999, "REV_AT_EPOCH": 61, "BSTAR": -3.76756e-06, "MEAN_MOTION_DOT": -1.58e-06, "MEAN_MOTION_DDOT": 0}, "tle": {"line1": "1 66919U 25285E   25344.63903705 -.00000158  00000+0 -37676-5 0  9993", "line2": "2 66919  50.0057 125.8382 0007868 284.4277  75.5755 14.05714535   618"}}, "geometry": {"type": "Point", "coordinates": [-161.5352794182562, 48.806599204391624]}}, {"type": "Feature", "properties": {"norad_id": 66920, "name": "HULIANWANG DIGUI 14F", "group": "last-30-days", "lat": 49.22614482870829, "lon": -158.37510853002948, "alt_km": 870.672661667475, "timestamp": "2025-12-10T20:49:51.346347+00:00", "meta": {"OBJECT_NAME": "HULIANWANG DIGUI 14F", "OBJECT_ID": "2025-285F", "EPOCH": "2025-12-10T17:02:00.436992", "MEAN_MOTION": 14.05850313, "ECCENTRICITY": 0.0005821, "INCLINATION": 50.01, "RA_OF_ASC_NODE": 125.549, "ARG_OF_PERICENTER": 281.7881, "MEAN_ANOMALY": 78.2371, "EPHEMERIS_TYPE": 0, "CLASSIFICATION_TYPE": "U", "NORAD_CAT_ID": 66920, "ELEMENT_SET_NO": 999, "REV_AT_EPOCH": 62, "BSTAR": 0.0002287, "MEAN_MOTION_DOT": 2.24e-06, "MEAN_MOTION_DDOT": 0}, "tle": {"line1": "1 66920U 25285F   25344.70972728  .00000224  00000+0  22870-3 0  9994", "line2": "2 66920  50.0100 125.5490 0005821 281.7881  78.2371 14.05850313   624"}}, "geometry": {"type": "Point", "coordinates": [-158.37510853002948, 49.22614482870829]}}, {"type": "Feature", "properties": {"norad_id": 66921, "name": "HULIANWANG DIGUI 14G", "group": "last-30-days", "lat": 49.324169644660934, "lon": -157.51849203407954, "alt_km": 871.1109331465168, "timestamp": "2025-12-10T20:49:51.346357+00:00", "meta": {"OBJECT_NAME": "HULIANWANG DIGUI 14G", "OBJECT_ID": "2025-285G", "EPOCH": "2025-12-10T17:01:51.136032", "MEAN_MOTION": 14.05883988, "ECCENTRICITY": 0.0006973, "INCLINATION": 50.0115, "RA_OF_ASC_NODE": 125.5503, "ARG_OF_PERICENTER": 288.2922, "MEAN_ANOMALY": 71.7224, "EPHEMERIS_TYPE": 0, "CLASSIFICATION_TYPE": "U", "NORAD_CAT_ID": 66921, "ELEMENT_SET_NO": 999, "REV_AT_EPOCH": 62, "BSTAR": 0.00024905, "MEAN_MOTION_DOT": 2.58e-06, "MEAN_MOTION_DDOT": 0}, "tle": {"line1": "1 66921U 25285G   25344.70961963  .00000258  00000+0  24905-3 0  9992", "line2": "2 66921  50.0115 125.5503 0006973 288.2922  71.7224 14.05883988   622"}}, "geometry": {"type": "Point", "coordinates": [-157.51849203407954, 49.324169644660934]}}, {"type": "Feature", "properties": {"norad_id": 66922, "name": "HULIANWANG DIGUI 14H", "group": "last-30-days", "lat": 49.59147321993826, "lon": -154.7080422920456, "alt_km": 870.4713882455953, "timestamp": "2025-12-10T20:49:51.346367+00:00", "meta": {"OBJECT_NAME": "HULIANWANG DIGUI 14H", "OBJECT_ID": "2025-285H", "EPOCH": "2025-12-10T15:18:59.874336", "MEAN_MOTION": 14.05998149, "ECCENTRICITY": 0.00069366, "INCLINATION": 50.0079, "RA_OF_ASC_NODE": 125.8353, "ARG_OF_PERICENTER": 294.2613, "MEAN_ANOMALY": 65.7568, "EPHEMERIS_TYPE": 0, "CLASSIFICATION_TYPE": "U", "NORAD_CAT_ID": 66922, "ELEMENT_SET_NO": 999, "REV_AT_EPOCH": 61, "BSTAR": -1.870944e-06, "MEAN_MOTION_DOT": -1.55e-06, "MEAN_MOTION_DDOT": 0}, "tle": {"line1": "1 66922U 25285H   25344.63819299 -.00000155  00000+0 -18709-5 0  9994", "line2": "2 66922  50.0079 125.8353 0006936 294.2613  65.7568 14.05998149   610"}}, "geometry": {"type": "Point", "coordinates": [-154.7080422920456, 49.59147321993826]}}, {"type": "Feature", "properties": {"norad_id": 66923, "name": "HULIANWANG DIGUI 14J", "group": "last-30-days", "lat": 49.70434677467875, "lon": -153.23927927610214, "alt_km": 869.495081959175, "timestamp": "2025-12-10T20:49:51.346377+00:00", "meta": {"OBJECT_NAME": "HULIANWANG DIGUI 14J", "OBJECT_ID": "2025-285J", "EPOCH": "2025-12-10T15:18:44.344800", "MEAN_MOTION": 14.06055236, "ECCENTRICITY": 0.00053881, "INCLINATION": 50.0076, "RA_OF_ASC_NODE": 125.8351, "ARG_OF_PERICENTER": 289.1569, "MEAN_ANOMALY": 70.8753, "EPHEMERIS_TYPE": 0, "CLASSIFICATION_TYPE": "U", "NORAD_CAT_ID": 66923, "ELEMENT_SET_NO": 999, "REV_AT_EPOCH": 61, "BSTAR": 0.00020757938, "MEAN_MOTION_DOT": 1.9e-06, "MEAN_MOTION_DDOT": 0}, "tle": {"line1": "1 66923U 25285J   25344.63801325  .00000190  00000+0  20758-3 0  9998", "line2": "2 66923  50.0076 125.8351 0005388 289.1569  70.8753 14.06055236   614"}}, "geometry": {"type": "Point", "coordinates": [-153.23927927610214, 49.70434677467875]}}, {"type": "Feature", "properties": {"norad_id": 66924, "name": "CZ-8A R/B", "group": "last-30-days", "lat": 41.341747422375256, "lon": -103.48771554901057, "alt_km": 703.9403026615, "timestamp": "2025-12-10T20:49:51.346387+00:00", "meta": {"OBJECT_NAME": "CZ-8A R/B", "OBJECT_ID": "2025-285K", "EPOCH": "2025-12-10T15:14:58.228224", "MEAN_MOTION": 14.30500545, "ECCENTRICITY": 0.01193137, "INCLINATION": 50.006, "RA_OF_ASC_NODE": 125.1122, "ARG_OF_PERICENTER": 99.3237, "MEAN_ANOMALY": 262.1193, "EPHEMERIS_TYPE": 0, "CLASSIFICATION_TYPE": "U", "NORAD_CAT_ID": 66924, "ELEMENT_SET_NO": 999, "REV_AT_EPOCH": 62, "BSTAR": 9.8432288e-05, "MEAN_MOTION_DOT": 1.12e-06, "MEAN_MOTION_DDOT": 0}, "tle": {"line1": "1 66924U 25285K   25344.63539616  .00000112  00000+0  98432-4 0  9999", "line2": "2 66924  50.0060 125.1122 0119313  99.3237 262.1193 14.30500545   624"}}, "geometry": {"type": "Point", "coordinates": [-103.48771554901057, 41.341747422375256]}}, {"type": "Feature", "properties": {"norad_id": 66953, "name": "HULIANWANG DIGUI 15A", "group": "last-30-days", "lat": -25.31114547708686, "lon": -14.82085365905168, "alt_km": 1011.8359561133666, "timestamp": "2025-12-10T20:49:51.346397+00:00", "meta": {"OBJECT_NAME": "HULIANWANG DIGUI 15A", "OBJECT_ID": "2025-287A", "EPOCH": "2025-12-10T06:55:20.076384", "MEAN_MOTION": 13.69073793, "ECCENTRICITY": 0.00082441, "INCLINATION": 86.4956, "RA_OF_ASC_NODE": 347.0512, "ARG_OF_PERICENTER": 213.3003, "MEAN_ANOMALY": 146.7638, "EPHEMERIS_TYPE": 0, "CLASSIFICATION_TYPE": "U", "NORAD_CAT_ID": 66953, "ELEMENT_SET_NO": 999, "REV_AT_EPOCH": 19, "BSTAR": 9.649594e-06, "MEAN_MOTION_DOT": 2.5e-07, "MEAN_MOTION_DDOT": 0}, "tle": {"line1": "1 66953U 25287A   25344.28842681  .00000025  00000+0  96496-5 0  9995", "line2": "2 66953  86.4956 347.0512 0008244 213.3003 146.7638 13.69073793   194"}}, "geometry": {"type": "Point", "coordinates": [-14.82085365905168, -25.31114547708686]}}, {"type": "Feature", "properties": {"norad_id": 66954, "name": "HULIANWANG DIGUI 15B", "group": "last-30-days", "lat": -24.661721473866884, "lon": -14.769831465159557, "alt_km": 1011.5551921851757, "timestamp": "2025-12-10T20:49:51.346409+00:00", "meta": {"OBJECT_NAME": "HULIANWANG DIGUI 15B", "OBJECT_ID": "2025-287B", "EPOCH": "2025-12-10T10:25:40.434528", "MEAN_MOTION": 13.69168852, "ECCENTRICITY": 0.00081957, "INCLINATION": 86.4972, "RA_OF_ASC_NODE": 346.9997, "ARG_OF_PERICENTER": 212.0231, "MEAN_ANOMALY": 148.0431, "EPHEMERIS_TYPE": 0, "CLASSIFICATION_TYPE": "U", "NORAD_CAT_ID": 66954, "ELEMENT_SET_NO": 999, "REV_AT_EPOCH": 21, "BSTAR": 1.1007839e-05, "MEAN_MOTION_DOT": 2.6e-07, "MEAN_MOTION_DDOT": 0}, "tle": {"line1": "1 66954U 25287B   25344.43449577  .00000026  00000+0  11008-4 0  9996", "line2": "2 66954  86.4972 346.9997 0008195 212.0231 148.0431 13.69168852   212"}}, "geometry": {"type": "Point", "coordinates": [-14.769831465159557, -24.661721473866884]}}, {"type": "Feature", "properties": {"norad_id": 66955, "name": "HULIANWANG DIGUI 15C", "group": "last-30-days", "lat": -23.807255334460432, "lon": -14.720030707679525, "alt_km": 1011.2592183059487, "timestamp": "2025-12-10T20:49:51.346418+00:00", "meta": {"OBJECT_NAME": "HULIANWANG DIGUI 15C", "OBJECT_ID": "2025-287C", "EPOCH": "2025-12-09T09:52:18.926688", "MEAN_MOTION": 13.69296672, "ECCENTRICITY": 0.00076324, "INCLINATION": 86.4914, "RA_OF_ASC_NODE": 347.3632, "ARG_OF_PERICENTER": 209.8722, "MEAN_ANOMALY": 150.2003, "EPHEMERIS_TYPE": 0, "CLASSIFICATION_TYPE": "U", "NORAD_CAT_ID": 66955, "ELEMENT_SET_NO": 999, "REV_AT_EPOCH": 7, "BSTAR": 3.470494e-06, "MEAN_MOTION_DOT": 2e-07, "MEAN_MOTION_DDOT": 0}, "tle": {"line1": "1 66955U 25287C   25343.41133017  .00000020  00000+0  34705-5 0  9997", "line2": "2 66955  86.4914 347.3632 0007632 209.8722 150.2003 13.69296672    70"}}, "geometry": {"type": "Point", "coordinates": [-14.720030707679525, -23.807255334460432]}}, {"type": "Feature", "properties": {"norad_id": 66956, "name": "HULIANWANG DIGUI 15D", "group": "last-30-days", "lat": -23.103286804008572, "lon": -14.655867034101078, "alt_km": 1011.0873115150252, "timestamp": "2025-12-10T20:49:51.346431+00:00", "meta": {"OBJECT_NAME": "HULIANWANG DIGUI 15D", "OBJECT_ID": "2025-287D", "EPOCH": "2025-12-10T08:40:06.191328", "MEAN_MOTION": 13.69398761, "ECCENTRICITY": 0.00070713, "INCLINATION": 86.4971, "RA_OF_ASC_NODE": 347.0263, "ARG_OF_PERICENTER": 199.7388, "MEAN_ANOMALY": 160.3499, "EPHEMERIS_TYPE": 0, "CLASSIFICATION_TYPE": "U", "NORAD_CAT_ID": 66956, "ELEMENT_SET_NO": 999, "REV_AT_EPOCH": 20, "BSTAR": 1.0798013e-05, "MEAN_MOTION_DOT": 2.6e-07, "MEAN_MOTION_DDOT": 0}, "tle": {"line1": "1 66956U 25287D   25344.36118277  .00000026  00000+0  10798-4 0  9995", "line2": "2 66956  86.4971 347.0263 0007071 199.7388 160.3499 13.69398761   201"}}, "geometry": {"type": "Point", "coordinates": [-14.655867034101078, -23.103286804008572]}}]}